[{"OBJECT_NAME":"GRUS-1E","OBJECT_ID":"2021-022D","EPOCH":"2026-03-09T21:59:56.793984","MEAN_MOTION":14.99580708,"ECCENTRICITY":0.00128752,"INCLINATION":97.5572,"RA_OF_ASC_NODE":316.384,"ARG_OF_PERICENTER":314.1526,"MEAN_ANOMALY":45.8638,"EPHEMERIS_TYPE":0,"CLASSIFICATION_TYPE":"U","NORAD_CAT_ID":47935,"ELEMENT_SET_NO":999,"REV_AT_EPOCH":27107,"BSTAR":0.00017718433,"MEAN_MOTION_DOT":2.125e-5,"MEAN_MOTION_DDOT":0},{"OBJECT_NAME":"STARLINK-34604","OBJECT_ID":"2025-150M","EPOCH":"2026-03-09T14:29:12.660000","MEAN_MOTION":14.98330941,"ECCENTRICITY":0.0003458,"INCLINATION":70.0022,"RA_OF_ASC_NODE":134.6858,"ARG_OF_PERICENTER":265.0859,"MEAN_ANOMALY":94.9905,"EPHEMERIS_TYPE":0,"CLASSIFICATION_TYPE":"U","NORAD_CAT_ID":64801,"ELEMENT_SET_NO":999,"REV_AT_EPOCH":3650,"BSTAR":0.00028954,"MEAN_MOTION_DOT":3.364e-5,"MEAN_MOTION_DDOT":0}]
